OBJECT_NAME,OBJECT_ID,EPOCH,MEAN_MOTION,ECCENTRICITY,INCLINATION,RA_OF_ASC_NODE,ARG_OF_PERICENTER,MEAN_ANOMALY,EPHEMERIS_TYPE,CLASSIFICATION_TYPE,NORAD_CAT_ID,ELEMENT_SET_NO,REV_AT_EPOCH,BSTAR,MEAN_MOTION_DOT,MEAN_MOTION_DDOT
STARLINK-30874,2023-170X,2025-10-13T23:17:05.292096,15.02538750,.00012831,43.0036,273.6001,275.9654,84.1042,0,U,58227,999,10820,.52590749E-4,.507E-5,0
STARLINK-30871,2023-170Y,2025-10-13T16:49:23.130624,15.02536274,.00011562,43.0029,275.0190,266.0475,94.0235,0,U,58228,999,10816,.59698691E-4,.603E-5,0
STARLINK-30861,2023-171A,2025-10-13T21:33:43.830144,15.02530227,.00016125,43.0003,3.6784,283.1279,76.9383,0,U,58230,999,10764,.26832884E-4,.159E-5,0
STARLINK-30867,2023-171B,2025-10-13T21:38:31.230240,15.02532485,.00014131,43.0051,3.7011,269.7866,90.2814,0,U,58231,999,10764,-.797192E-5,-.311E-5,0
STARLINK-30880,2023-171C,2025-10-13T21:43:18.940512,15.02531027,.00017218,43.0070,3.7281,271.8340,88.2305,0,U,58232,999,10764,-.30373548E-4,-.614E-5,0
STARLINK-30777,2023-171D,2025-10-13T21:52:56.473536,15.02510362,.00015918,43.0050,3.7731,272.6964,87.3696,0,U,58233,999,10764,-.59115354E-4,-.1002E-4,0
STARLINK-30860,2023-171E,2025-10-13T21:48:06.725952,15.02530796,.00014325,43.0046,3.7496,276.8784,83.1895,0,U,58234,999,10764,.35051607E-4,.27E-5,0
STARLINK-30853,2023-171G,2025-10-13T15:34:46.388928,15.02556617,.0002403,43.0074,5.2379,262.5885,97.4684,0,U,58236,999,10760,.29177369E-3,.3742E-4,0
STARLINK-30866,2023-171H,2025-10-13T14:51:37.791360,15.02534689,.00012154,43.0024,5.0101,276.9494,83.1210,0,U,58237,999,10760,-.30803801E-4,-.62E-5,0
STARLINK-30817,2023-171J,2025-10-13T22:02:29.656320,15.02530734,.00009468,43.0052,3.8109,269.9921,90.0813,0,U,58238,999,10764,-.9241703E-5,-.328E-5,0
STARLINK-30847,2023-171K,2025-10-12T06:14:05.055072,15.02537906,.00016336,43.0075,12.8753,279.4793,80.5865,0,U,58239,999,10739,.10197653E-3,.1174E-4,0
STARLINK-30848,2023-171L,2025-10-13T22:28:25.017024,15.02528996,.00010274,43.0049,4.7852,275.6775,84.3950,0,U,58240,999,10763,-.60636057E-4,-.1022E-4,0
STARLINK-30843,2023-171M,2025-10-13T22:12:05.058720,15.02534547,.00006293,43.0053,3.8560,264.0053,96.0717,0,U,58241,999,10766,-.14012849E-3,-.2096E-4,0
STARLINK-30877,2023-171N,2025-10-13T14:56:25.304640,15.02541884,.00009021,43.0023,5.0336,249.5726,110.5020,0,U,58242,999,10760,-.18111148E-3,-.2649E-4,0
STARLINK-30864,2023-171P,2025-10-13T22:21:30.831840,15.02527590,.000103,43.0031,3.0635,278.2190,81.8536,0,U,58243,999,10755,-.41192307E-4,-.76E-5,0
STARLINK-30854,2023-171Q,2025-10-13T22:09:14.007456,15.02531217,.00012125,43.0031,4.7015,262.1617,97.9088,0,U,58244,999,10763,-.83540043E-4,-.1332E-4,0
STARLINK-30849,2023-171R,2025-10-13T22:26:17.467296,15.02536386,.00018647,43.0011,3.0883,263.4707,96.5923,0,U,58245,999,10765,-.12836555E-3,-.1937E-4,0
STARLINK-30886,2023-171S,2025-10-13T22:35:55.979232,15.02512882,.00001497,43.0037,3.1352,354.2941,5.7900,0,U,58246,999,10765,-.19836702E-3,-.288E-4,0
STARLINK-30850,2023-171T,2025-10-13T22:31:07.397184,15.02490659,.00007088,43.0035,3.1129,300.2060,59.8712,0,U,58247,999,10765,.65300615E-3,.8618E-4,0
STARLINK-30823,2023-171U,2025-10-13T22:40:41.426688,15.02519878,.00010009,43.0014,3.1581,262.7579,97.3149,0,U,58248,999,10765,.16357355E-3,.2006E-4,0
STARLINK-30873,2023-171V,2025-10-13T22:45:29.022048,15.02529951,.00011338,43.0024,3.1832,274.1667,85.9046,0,U,58249,999,10765,-.78053874E-4,-.1258E-4,0
STARLINK-30808,2023-171W,2025-10-13T21:50:13.316640,15.02529470,.00015466,43.0009,5.4351,273.3140,86.7525,0,U,58250,999,10762,-.30828997E-4,-.62E-5,0
STARLINK-30881,2023-171X,2025-10-13T22:16:51.744288,15.02536898,.00011081,43.0012,3.8041,274.9826,85.0890,0,U,58251,999,10764,-.66572927E-4,-.1103E-4,0
STARLINK-30883,2023-171Y,2025-10-13T15:01:12.990720,15.02534240,.00012719,43.0030,5.0562,258.6526,101.4174,0,U,58252,999,10760,.7798917E-5,-.98E-6,0
ZHONGXING-6E,2023-172A,2025-10-13T19:59:38.752224,1.00268834,.00033508,0.0388,92.1552,215.3523,130.5622,0,U,58253,999,718,0,-.375E-5,0
CONNECTA T3.1,2023-174A,2025-10-13T16:08:44.022336,15.74290396,.00049666,97.3905,13.5353,288.8019,71.2707,0,U,58256,999,10807,.17563378E-2,.259835E-2,0
MANTIS,2023-174B,2025-10-13T21:35:14.127648,16.19840603,.00132336,97.3843,17.6989,281.2908,78.6894,0,U,58257,999,10834,.21999844E-2,.4150603E-1,.2424984E-5
ORBASTRO-PC-1,2023-174C,2025-10-13T23:12:38.506176,15.36299242,.00075309,97.4008,4.6760,347.2397,12.8656,0,U,58258,999,10751,.63276151E-3,.22369E-3,0
LEMUR-2-BASS,2023-174D,2025-10-13T22:38:04.560576,15.34047195,.00076479,97.4055,4.5813,342.6880,17.4101,0,U,58259,999,10749,.49594517E-3,.16289E-3,0
PLATERO,2023-174G,2025-10-13T16:16:47.730144,15.46238482,.00063943,97.4097,11.3542,303.0857,56.9778,0,U,58262,999,10788,.48814144E-3,.23973E-3,0
