STARLINK-30874          
1 58227U 23170X   25286.97020014  .00000507  00000+0  52591-4 0  9990
2 58227  43.0036 273.6001 0001283 275.9654  84.1042 15.02538750108209
STARLINK-30871          
1 58228U 23170Y   25286.70096216  .00000603  00000+0  59699-4 0  9992
2 58228  43.0029 275.0190 0001156 266.0475  94.0235 15.02536274108166
STARLINK-30861          
1 58230U 23171A   25286.89842396  .00000159  00000+0  26833-4 0  9994
2 58230  43.0003   3.6784 0001612 283.1279  76.9383 15.02530227107641
STARLINK-30867          
1 58231U 23171B   25286.90175035 -.00000311  00000+0 -79719-5 0  9990
2 58231  43.0051   3.7011 0001413 269.7866  90.2814 15.02532485107646
STARLINK-30880          
1 58232U 23171C   25286.90508033 -.00000614  00000+0 -30374-4 0  9998
2 58232  43.0070   3.7281 0001721 271.8340  88.2305 15.02531027107643
STARLINK-30777          
1 58233U 23171D   25286.91176474 -.00001002  00000+0 -59115-4 0  9996
2 58233  43.0050   3.7731 0001591 272.6964  87.3696 15.02510362107640
STARLINK-30860          
1 58234U 23171E   25286.90841118  .00000270  00000+0  35052-4 0  9998
2 58234  43.0046   3.7496 0001432 276.8784  83.1895 15.02530796107642
STARLINK-30853          
1 58236U 23171G   25286.64914802  .00003742  00000+0  29177-3 0  9999
2 58236  43.0074   5.2379 0002403 262.5885  97.4684 15.02556617107605
STARLINK-30866          
1 58237U 23171H   25286.61918740 -.00000620  00000+0 -30804-4 0  9996
2 58237  43.0024   5.0101 0001215 276.9494  83.1210 15.02534689107609
STARLINK-30817          
1 58238U 23171J   25286.91839880 -.00000328  00000+0 -92417-5 0  9991
2 58238  43.0052   3.8109 0000946 269.9921  90.0813 15.02530734107649
STARLINK-30847          
1 58239U 23171K   25285.25978073  .00001174  00000+0  10198-3 0  9998
2 58239  43.0075  12.8753 0001633 279.4793  80.5865 15.02537906107398
STARLINK-30848          
1 58240U 23171L   25286.93640066 -.00001022  00000+0 -60636-4 0  9991
2 58240  43.0049   4.7852 0001027 275.6775  84.3950 15.02528996107639
STARLINK-30843          
1 58241U 23171M   25286.92505855 -.00002096  00000+0 -14013-3 0  9996
2 58241  43.0053   3.8560 0000629 264.0053  96.0717 15.02534547107662
STARLINK-30877          
1 58242U 23171N   25286.62251510 -.00002649  00000+0 -18111-3 0  9997
2 58242  43.0023   5.0336 0000902 249.5726 110.5020 15.02541884107609
STARLINK-30864          
1 58243U 23171P   25286.93160685 -.00000760  00000+0 -41192-4 0  9992
2 58243  43.0031   3.0635 0001030 278.2190  81.8536 15.02527590107550
STARLINK-30854          
1 58244U 23171Q   25286.92307879 -.00001332  00000+0 -83540-4 0  9999
2 58244  43.0031   4.7015 0001212 262.1617  97.9088 15.02531217107639
STARLINK-30849          
1 58245U 23171R   25286.93492439 -.00001937  00000+0 -12837-3 0  9999
2 58245  43.0011   3.0883 0001864 263.4707  96.5923 15.02536386107657
STARLINK-30886          
1 58246U 23171S   25286.94162013 -.00002880  00000+0 -19837-3 0  9998
2 58246  43.0037   3.1352 0000149 354.2941   5.7900 15.02512882107654
STARLINK-30850          
1 58247U 23171T   25286.93828006  .00008618  00000+0  65301-3 0  9999
2 58247  43.0035   3.1129 0000708 300.2060  59.8712 15.02490659107657
STARLINK-30823          
1 58248U 23171U   25286.94492392  .00002006  00000+0  16357-3 0  9998
2 58248  43.0014   3.1581 0001000 262.7579  97.3149 15.02519878107656
STARLINK-30873          
1 58249U 23171V   25286.94825257 -.00001258  00000+0 -78054-4 0  9992
2 58249  43.0024   3.1832 0001133 274.1667  85.9046 15.02529951107651
STARLINK-30808          
1 58250U 23171W   25286.90987635 -.00000620  00000+0 -30829-4 0  9999
2 58250  43.0009   5.4351 0001546 273.3140  86.7525 15.02529470107626
STARLINK-30881          
1 58251U 23171X   25286.92837667 -.00001103  00000+0 -66573-4 0  9993
2 58251  43.0012   3.8041 0001108 274.9826  85.0890 15.02536898107642
STARLINK-30883          
1 58252U 23171Y   25286.62584480 -.00000098  00000+0  77989-5 0  9998
2 58252  43.0030   5.0562 0001271 258.6526 101.4174 15.02534240107605
ZHONGXING-6E            
1 58253U 23172A   25286.83308741 -.00000375  00000+0  00000+0 0  9999
2 58253   0.0388  92.1552 0003350 215.3523 130.5622  1.00268834  7187
CONNECTA T3.1           
1 58256U 23174A   25286.67273174  .00259835  00000+0  17563-2 0  9998
2 58256  97.3905  13.5353 0004966 288.8019  71.2707 15.74290396108078
MANTIS                  
1 58257U 23174B   25286.89946907  .04150603  24250-5  22000-2 0  9992
2 58257  97.3843  17.6989 0013233 281.2908  78.6894 16.19840603108341
ORBASTRO-PC-1           
1 58258U 23174C   25286.96711234  .00022369  00000+0  63276-3 0  9999
2 58258  97.4008   4.6760 0007530 347.2397  12.8656 15.36299242107516
LEMUR-2-BASS            
1 58259U 23174D   25286.94310834  .00016289  00000+0  49595-3 0  9991
2 58259  97.4055   4.5813 0007647 342.6880  17.4101 15.34047195107491
PLATERO                 
1 58262U 23174G   25286.67833021  .00023973  00000+0  48814-3 0  9994
2 58262  97.4097  11.3542 0006394 303.0857  56.9778 15.46238482107884
